CUBEBUG-2 (LO-74)       
1 39440U 13066AA  26185.61268961  .00007477  00000+0  68654-3 0  9993
2 39440  97.8913 134.6663 0056422 331.4449  28.3683 14.93916607679597
FUNCUBE-1 (AO-73)       
1 39444U 13066AE  26185.35696855  .00009451  00000+0  58074-3 0  9994
2 39444  97.8284 157.1639 0037390 143.1245 217.2566 15.09704322682253
UWE-3                   
1 39446U 13066AG  26185.59340155  .00005562  00000+0  47583-3 0  9993
2 39446  97.8706 141.7872 0047324 261.5347  98.0509 14.97155710680187
UNISAT-6                
1 40012U 14033C   26185.41204729  .00003002  00000+0  32441-3 0  9990
2 40012  97.7902 337.8229 0045092  13.5030 346.7381 14.88331138648728
DUCHIFAT-1              
1 40021U 14033M   26184.69623055  .00145426  00000+0  12812-2 0  9992
2 40021  98.0432 246.2208 0000321 267.7040  92.4182 15.68277261658337
QB50P1                  
1 40025U 14033R   26185.48198915  .00015142  00000+0  73515-3 0  9995
2 40025  98.0964 197.8434 0009613 156.7377 203.4292 15.18541175655657
LILACSAT-2              
1 40908U 15049K   26185.61920236  .00028852  00000+0  47880-3 0  9995
2 40908  97.4623 223.1276 0007474 174.2311 185.9029 15.52051783598450
FOX-1A (AO-85)          
1 40967U 15058D   26185.52326681  .00003940  00000+0  35129-3 0  9998
2 40967  64.7734 225.1060 0131551  49.8694 311.3855 14.91048439116154
CAS-2T & KS-1Q          
1 41847U 16066G   26185.48597832  .00001682  00000+0  24203-3 0  9991
2 41847  98.3815 261.0243 0342746  77.1704 286.7545 14.44750691507291
RADFXSAT (FOX-1B)       
1 43017U 17073E   26185.07439523  .00007880  00000+0  34433-3 0  9990
2 43017  97.4676  51.9443 0148129 270.3124  88.1134 15.12944188467944
DIWATA-2B               
1 43678U 18084H   26185.57496054  .00003028  00000+0  24498-3 0  9993
2 43678  98.1207  22.5420 0013064 116.7030 243.5531 15.00529470418823
ES'HAIL 2               
1 43700U 18090A   26185.58373536  .00000157  00000+0  00000+0 0  9995
2 43700   0.0129  60.5903 0002294  81.3212  16.6260  1.00273806 27855
FOX-1CLIFF (AO-95)      
1 43770U 18099N   26185.11680476  .00015402  00000+0  58164-3 0  9991
2 43770  97.4372 245.3036 0006932 287.7231  72.3251 15.27076980415801
ITASAT                  
1 43786U 18099AE  26185.60840329  .00013021  00000+0  61886-3 0  9997
2 43786  97.4013 236.7736 0010760 293.4333  66.5770 15.19286795415553
JY1SAT (JO-97)          
1 43803U 18099AX  26185.12210852  .00023140  00000+0  69954-3 0  9993
2 43803  97.4120 248.0201 0005813 193.8667 166.2417 15.34211411416222
UWE-4                   
1 43880U 18111E   26185.55420394  .00067914  00000+0  13249-2 0  9996
2 43880  97.5847 114.7586 0004574 243.2837 116.7944 15.47262516413465
TIANYAN 01              
1 44881U 19093C   26185.61317888  .00001080  00000+0  12782-3 0  9992
2 44881  97.7524 257.4200 0014449  34.7843 325.4315 14.86547292354005
RS-44 & BREEZE-KM R/B   
1 44909U 19096E   26185.36136592  .00000016  00000+0  10565-4 0  9995
2 44909  82.5235 328.2921 0218587 104.1934 258.3557 12.79748976304544
SALSAT                  
1 46495U 20068K   26185.47776598  .00013616  00000+0  47010-3 0  9990
2 46495  97.8855 189.5980 0008208 234.4468 125.6006 15.30057656318001
XW-3 (CAS-9)            
1 50466U 21131B   26185.61757161  .00000591  00000+0  19608-3 0  9996
2 50466  98.4990 277.9134 0005145  57.1397 303.0287 14.41374031237623
GREENCUBE (IO-117)      
1 53109U 22080E   26185.30430443 -.00000003  00000+0  00000+0 0  9995
2 53109  70.1435 292.2925 0008954 285.9105  74.0568  6.42583223 93161
UMKA 1 (RS40S)          
1 57172U 23091G   26185.59456789  .00010726  00000+0  48485-3 0  9999
2 57172  97.5036 244.2261 0013927  63.6275 296.6388 15.21033126166656
CUBESX-HSE 3 (RS42S)    
1 57178U 23091N   26184.96649194  .00016476  00000+0  54024-3 0  9993
2 57178  97.5080 250.7696 0010879  41.2917 318.9145 15.31646892166990
MONITOR-3 (RS58S)       
1 57180U 23091Q   26185.61773251  .00020927  00000+0  76099-3 0  9993
2 57180  97.5069 249.1948 0012078  45.6734 314.5494 15.28213740166953
MONITOR-4 (RS57S)       
1 57182U 23091S   26185.20297597  .00014373  00000+0  52293-3 0  9992
2 57182  97.5064 248.7488 0012124  47.3732 312.8527 15.28278388166893
MONITOR-2 (RS39S)       
1 57184U 23091U   26185.63787493  .00008682  00000+0  41619-3 0  9996
2 57184  97.5059 243.8089 0012303  57.8347 302.4079 15.19084844166607
SVYATOBOR 1 (RS60S)     
1 57187U 23091X   26185.62416116  .00018016  00000+0  68228-3 0  9996
2 57187  97.5075 249.5401 0009822  40.6043 319.5927 15.26928963166972
VIZARD-METEO (RS38S)    
1 57189U 23091Z   26185.47325837  .00026696  00000+0  74730-3 0  9998
2 57189  97.5079 255.3105 0006701  21.3484 338.8038 15.36596660167347
POLYTECH-UNIVERSE 3 (R*)
1 57191U 23091AB  26185.59686206  .00008757  00000+0  41654-3 0  9991
2 57191  97.5033 243.2723 0016836  71.7721 288.5344 15.19292190166594
UTMN 2 (RS27S)          
1 57203U 23091AP  26185.62794171  .00025376  00000+0  80857-3 0  9994
2 57203  97.5073 253.0947 0007867  28.5017 331.6653 15.32503952167210
